[{"OBJECT_NAME":"SITRO-AIS 19","OBJECT_ID":"2024-199AA","EPOCH":"2026-03-09T22:55:52.374720","MEAN_MOTION":14.97361264,"ECCENTRICITY":0.00068965,"INCLINATION":97.3309,"RA_OF_ASC_NODE":274.6556,"ARG_OF_PERICENTER":52.1847,"MEAN_ANOMALY":307.9999,"EPHEMERIS_TYPE":0,"CLASSIFICATION_TYPE":"U","NORAD_CAT_ID":61759,"ELEMENT_SET_NO":999,"REV_AT_EPOCH":12028,"BSTAR":0.00032569983,"MEAN_MOTION_DOT":3.731e-5,"MEAN_MOTION_DDOT":0},{"OBJECT_NAME":"STARLINK-36123","OBJECT_ID":"2025-293E","EPOCH":"2026-03-09T16:00:03.000096","MEAN_MOTION":14.98362037,"ECCENTRICITY":0.0003577,"INCLINATION":69.9998,"RA_OF_ASC_NODE":94.4135,"ARG_OF_PERICENTER":276.095,"MEAN_ANOMALY":201.5645,"EPHEMERIS_TYPE":0,"CLASSIFICATION_TYPE":"U","NORAD_CAT_ID":67007,"ELEMENT_SET_NO":999,"REV_AT_EPOCH":578,"BSTAR":-0.0036852177,"MEAN_MOTION_DOT":-0.00043829,"MEAN_MOTION_DDOT":0}]
